start=new Date('2021-12-26T00:00:00.000Z').valueOf();
sats=[{"MEAN_MOTION_DOT":"-0.00000876","CLASSIFICATION_TYPE":"U","CENTER_NAME":"EARTH","NORAD_CAT_ID":"45090","MEAN_ANOMALY":"309.2674","OBJECT_TYPE":"PAYLOAD","TLE_LINE2":"2 45090  53.0545 298.1293 0002273  50.8516 309.2674 15.06385291105642","COUNTRY_CODE":"US","OBJECT_NAME":"STARLINK-1176","MEAN_MOTION_DDOT":"0.0000000000000","PERIOD":"95.593","SITE":"AFETR","ELEMENT_SET_NO":"999","EPHEMERIS_TYPE":"0","APOAPSIS":"548.833","REF_FRAME":"TEME","MEAN_ELEMENT_THEORY":"SGP4","TIME_SYSTEM":"UTC","LAUNCH_DATE":"2020-01-29","EPOCH":"2021-12-25T13:11:54.328704","DECAY_DATE":null,"FILE":"3250775","GP_ID":"192427274","PERIAPSIS":"545.684","OBJECT_ID":"2020-006AY","BSTAR":"-0.00003992800000","INCLINATION":"53.0545","RCS_SIZE":"LARGE","REV_AT_EPOCH":"10564","TLE_LINE1":"1 45090U 20006AY  21359.54993436 -.00000876  00000-0 -39928-4 0  9997","ARG_OF_PERICENTER":"50.8516","ECCENTRICITY":"0.00022730","SEMIMAJOR_AXIS":"6925.394","RA_OF_ASC_NODE":"298.1293","MEAN_MOTION":"15.06385291"},{"LAUNCH_DATE":"2020-01-29","TIME_SYSTEM":"UTC","APOAPSIS":"548.517","EPHEMERIS_TYPE":"0","ELEMENT_SET_NO":"999","MEAN_ELEMENT_THEORY":"SGP4","REF_FRAME":"TEME","SITE":"AFETR","PERIOD":"95.592","MEAN_MOTION_DDOT":"0.0000000000000","NORAD_CAT_ID":"45092","MEAN_ANOMALY":"300.1695","CENTER_NAME":"EARTH","CLASSIFICATION_TYPE":"U","MEAN_MOTION_DOT":"0.00001729","COUNTRY_CODE":"US","OBJECT_NAME":"STARLINK-1137","TLE_LINE2":"2 45092  53.0545 296.7620 0001883  59.9481 300.1695 15.06400192105684","OBJECT_TYPE":"PAYLOAD","ECCENTRICITY":"0.00018830","ARG_OF_PERICENTER":"59.9481","RA_OF_ASC_NODE":"296.7620","SEMIMAJOR_AXIS":"6925.348","MEAN_MOTION":"15.06400192","TLE_LINE1":"1 45092U 20006BA  21359.85586509  .00001729  00000-0  13498-3 0  9991","REV_AT_EPOCH":"10568","BSTAR":"0.00013498000000","OBJECT_ID":"2020-006BA","RCS_SIZE":"LARGE","INCLINATION":"53.0545","FILE":"3250974","DECAY_DATE":null,"EPOCH":"2021-12-25T20:32:26.743776","PERIAPSIS":"545.909","GP_ID":"192455736"},{"SITE":"AFETR","PERIOD":"95.593","MEAN_MOTION_DDOT":"0.0000000000000","COUNTRY_CODE":"US","OBJECT_NAME":"STARLINK-1142","TLE_LINE2":"2 45093  53.0557 299.1575 0001763  58.2949 301.8212 15.06391538105600","OBJECT_TYPE":"PAYLOAD","MEAN_ANOMALY":"301.8212","NORAD_CAT_ID":"45093","CENTER_NAME":"EARTH","CLASSIFICATION_TYPE":"U","MEAN_MOTION_DOT":"0.00000770","LAUNCH_DATE":"2020-01-29","TIME_SYSTEM":"UTC","MEAN_ELEMENT_THEORY":"SGP4","REF_FRAME":"TEME","EPHEMERIS_TYPE":"0","APOAPSIS":"548.460","ELEMENT_SET_NO":"999","RCS_SIZE":"LARGE","INCLINATION":"53.0557","BSTAR":"0.00007059200000","OBJECT_ID":"2020-006BB","PERIAPSIS":"546.019","GP_ID":"192426272","FILE":"3250775","EPOCH":"2021-12-25T07:42:49.513824","DECAY_DATE":null,"RA_OF_ASC_NODE":"299.1575","SEMIMAJOR_AXIS":"6925.374","MEAN_MOTION":"15.06391538","ECCENTRICITY":"0.00017630","ARG_OF_PERICENTER":"58.2949","TLE_LINE1":"1 45093U 20006BB  21359.32140641  .00000770  00000-0  70592-4 0  9991","REV_AT_EPOCH":"10560"},{"LAUNCH_DATE":"2020-01-29","TIME_SYSTEM":"UTC","EPHEMERIS_TYPE":"0","APOAPSIS":"548.413","ELEMENT_SET_NO":"999","MEAN_ELEMENT_THEORY":"SGP4","REF_FRAME":"TEME","SITE":"AFETR","PERIOD":"95.592","MEAN_MOTION_DDOT":"0.0000000000000","MEAN_ANOMALY":"308.3976","NORAD_CAT_ID":"45094","CENTER_NAME":"EARTH","CLASSIFICATION_TYPE":"U","MEAN_MOTION_DOT":"0.00001361","OBJECT_NAME":"STARLINK-1146","COUNTRY_CODE":"US","TLE_LINE2":"2 45094  53.0559 296.9980 0001716  51.7167 308.3976 15.06396546105687","OBJECT_TYPE":"PAYLOAD","ECCENTRICITY":"0.00017160","ARG_OF_PERICENTER":"51.7167","MEAN_MOTION":"15.06396546","SEMIMAJOR_AXIS":"6925.359","RA_OF_ASC_NODE":"296.9980","TLE_LINE1":"1 45094U 20006BC  21359.80057880  .00001361  00000-0  11025-3 0  9999","REV_AT_EPOCH":"10568","BSTAR":"0.00011025000000","OBJECT_ID":"2020-006BC","RCS_SIZE":"LARGE","INCLINATION":"53.0559","FILE":"3250974","EPOCH":"2021-12-25T19:12:50.008320","DECAY_DATE":null,"PERIAPSIS":"546.036","GP_ID":"192455236"},{"LAUNCH_DATE":"2020-01-29","TIME_SYSTEM":"UTC","APOAPSIS":"548.591","EPHEMERIS_TYPE":"0","ELEMENT_SET_NO":"999","MEAN_ELEMENT_THEORY":"SGP4","REF_FRAME":"TEME","SITE":"AFETR","PERIOD":"95.593","MEAN_MOTION_DDOT":"0.0000000000000","NORAD_CAT_ID":"45095","MEAN_ANOMALY":"299.6868","CENTER_NAME":"EARTH","CLASSIFICATION_TYPE":"U","MEAN_MOTION_DOT":"-0.00001136","COUNTRY_CODE":"US","OBJECT_NAME":"STARLINK-1147","TLE_LINE2":"2 45095  53.0564 298.1895 0001927  60.4312 299.6868 15.06385837105645","OBJECT_TYPE":"PAYLOAD","ECCENTRICITY":"0.00019270","ARG_OF_PERICENTER":"60.4312","SEMIMAJOR_AXIS":"6925.392","RA_OF_ASC_NODE":"298.1895","MEAN_MOTION":"15.06385837","TLE_LINE1":"1 45095U 20006BD  21359.53888529 -.00001136  00000-0 -57409-4 0  9991","REV_AT_EPOCH":"10564","BSTAR":"-0.00005740900000","OBJECT_ID":"2020-006BD","RCS_SIZE":"LARGE","INCLINATION":"53.0564","FILE":"3250775","EPOCH":"2021-12-25T12:55:59.689056","DECAY_DATE":null,"PERIAPSIS":"545.922","GP_ID":"192426775"},{"SEMIMAJOR_AXIS":"6925.387","MEAN_MOTION":"15.06387564","RA_OF_ASC_NODE":"296.7358","ARG_OF_PERICENTER":"51.7584","ECCENTRICITY":"0.00016920","REV_AT_EPOCH":"10568","TLE_LINE1":"1 45096U 20006BE  21359.86323940 -.00000590  00000-0 -20704-4 0  9990","RCS_SIZE":"LARGE","INCLINATION":"53.0562","OBJECT_ID":"2020-006BE","BSTAR":"-0.00002070400000","GP_ID":"192456236","PERIAPSIS":"546.080","FILE":"3250974","EPOCH":"2021-12-25T20:43:03.884160","DECAY_DATE":null,"TIME_SYSTEM":"UTC","LAUNCH_DATE":"2020-01-29","REF_FRAME":"TEME","MEAN_ELEMENT_THEORY":"SGP4","ELEMENT_SET_NO":"999","EPHEMERIS_TYPE":"0","APOAPSIS":"548.423","PERIOD":"95.593","MEAN_MOTION_DDOT":"0.0000000000000","SITE":"AFETR","TLE_LINE2":"2 45096  53.0562 296.7358 0001692  51.7584 308.3557 15.06387564105681","OBJECT_TYPE":"PAYLOAD","COUNTRY_CODE":"US","OBJECT_NAME":"STARLINK-1152","MEAN_MOTION_DOT":"-0.00000590","NORAD_CAT_ID":"45096","CENTER_NAME":"EARTH","MEAN_ANOMALY":"308.3557","CLASSIFICATION_TYPE":"U"},{"FILE":"3250974","DECAY_DATE":null,"EPOCH":"2021-12-25T21:52:03.662400","PERIAPSIS":"545.875","GP_ID":"192454986","BSTAR":"-0.00024666000000","OBJECT_ID":"2020-006BG","RCS_SIZE":"LARGE","INCLINATION":"53.0542","TLE_LINE1":"1 45098U 20006BG  21359.91115350 -.00003952  00000-0 -24666-3 0  9997","REV_AT_EPOCH":"10569","ECCENTRICITY":"0.00019920","ARG_OF_PERICENTER":"68.6434","SEMIMAJOR_AXIS":"6925.389","RA_OF_ASC_NODE":"296.5162","MEAN_MOTION":"15.06386654","NORAD_CAT_ID":"45098","CENTER_NAME":"EARTH","MEAN_ANOMALY":"291.4768","CLASSIFICATION_TYPE":"U","MEAN_MOTION_DOT":"-0.00003952","COUNTRY_CODE":"US","OBJECT_NAME":"STARLINK-1184","TLE_LINE2":"2 45098  53.0542 296.5162 0001992  68.6434 291.4768 15.06386654105692","OBJECT_TYPE":"PAYLOAD","SITE":"AFETR","PERIOD":"95.593","MEAN_MOTION_DDOT":"0.0000000000000","APOAPSIS":"548.634","EPHEMERIS_TYPE":"0","ELEMENT_SET_NO":"999","MEAN_ELEMENT_THEORY":"SGP4","REF_FRAME":"TEME","LAUNCH_DATE":"2020-01-29","TIME_SYSTEM":"UTC"},{"FILE":"3250775","DECAY_DATE":null,"EPOCH":"2021-12-25T13:06:35.437536","PERIAPSIS":"545.932","GP_ID":"192426525","BSTAR":"0.00006378000000","OBJECT_ID":"2020-006BH","RCS_SIZE":"LARGE","INCLINATION":"53.0569","TLE_LINE1":"1 45099U 20006BH  21359.54624349  .00000668  00000-0  63780-4 0  9990","REV_AT_EPOCH":"10564","ECCENTRICITY":"0.00018580","ARG_OF_PERICENTER":"49.5837","RA_OF_ASC_NODE":"298.1402","SEMIMAJOR_AXIS":"6925.354","MEAN_MOTION":"15.06398326","MEAN_ANOMALY":"310.5314","NORAD_CAT_ID":"45099","CENTER_NAME":"EARTH","CLASSIFICATION_TYPE":"U","MEAN_MOTION_DOT":"0.00000668","OBJECT_NAME":"STARLINK-1186","COUNTRY_CODE":"US","TLE_LINE2":"2 45099  53.0569 298.1402 0001858  49.5837 310.5314 15.06398326105647","OBJECT_TYPE":"PAYLOAD","SITE":"AFETR","PERIOD":"95.592","MEAN_MOTION_DDOT":"0.0000000000000","EPHEMERIS_TYPE":"0","APOAPSIS":"548.505","ELEMENT_SET_NO":"999","MEAN_ELEMENT_THEORY":"SGP4","REF_FRAME":"TEME","LAUNCH_DATE":"2020-01-29","TIME_SYSTEM":"UTC"},{"TLE_LINE1":"1 45100U 20006BJ  21359.90747205 -.00002748  00000-0 -16576-3 0  9993","REV_AT_EPOCH":"10569","ECCENTRICITY":"0.00017960","ARG_OF_PERICENTER":"56.9484","MEAN_MOTION":"15.06381514","SEMIMAJOR_AXIS":"6925.405","RA_OF_ASC_NODE":"296.5107","EPOCH":"2021-12-25T21:46:45.585120","DECAY_DATE":null,"FILE":"3250974","PERIAPSIS":"546.026","GP_ID":"192455988","BSTAR":"-0.00016576000000","OBJECT_ID":"2020-006BJ","INCLINATION":"53.0542","RCS_SIZE":"LARGE","EPHEMERIS_TYPE":"0","APOAPSIS":"548.514","ELEMENT_SET_NO":"999","MEAN_ELEMENT_THEORY":"SGP4","REF_FRAME":"TEME","LAUNCH_DATE":"2020-01-29","TIME_SYSTEM":"UTC","CLASSIFICATION_TYPE":"U","MEAN_ANOMALY":"303.1677","NORAD_CAT_ID":"45100","CENTER_NAME":"EARTH","MEAN_MOTION_DOT":"-0.00002748","COUNTRY_CODE":"US","OBJECT_NAME":"STARLINK-1193","OBJECT_TYPE":"PAYLOAD","TLE_LINE2":"2 45100  53.0542 296.5107 0001796  56.9484 303.1677 15.06381514105692","SITE":"AFETR","MEAN_MOTION_DDOT":"0.0000000000000","PERIOD":"95.593"},{"TIME_SYSTEM":"UTC","LAUNCH_DATE":"2020-01-29","ELEMENT_SET_NO":"999","APOAPSIS":"548.449","EPHEMERIS_TYPE":"0","REF_FRAME":"TEME","MEAN_ELEMENT_THEORY":"SGP4","PERIOD":"95.593","MEAN_MOTION_DDOT":"0.0000000000000","SITE":"AFETR","MEAN_MOTION_DOT":"0.00000845","NORAD_CAT_ID":"45101","CENTER_NAME":"EARTH","MEAN_ANOMALY":"301.3567","CLASSIFICATION_TYPE":"U","TLE_LINE2":"2 45101  53.0550 296.8290 0001747  58.7593 301.3567 15.06391561105685","OBJECT_TYPE":"PAYLOAD","COUNTRY_CODE":"US","OBJECT_NAME":"STARLINK-1194","ARG_OF_PERICENTER":"58.7593","ECCENTRICITY":"0.00017470","SEMIMAJOR_AXIS":"6925.374","MEAN_MOTION":"15.06391561","RA_OF_ASC_NODE":"296.8290","REV_AT_EPOCH":"10568","TLE_LINE1":"1 45101U 20006BK  21359.83743525  .00000845  00000-0  75669-4 0  9990","OBJECT_ID":"2020-006BK","BSTAR":"0.00007566900000","RCS_SIZE":"LARGE","INCLINATION":"53.0550","FILE":"3250974","EPOCH":"2021-12-25T20:05:54.405600","DECAY_DATE":null,"GP_ID":"192455737","PERIAPSIS":"546.030"}];
